IRIDIUM 154             
1 43574U 18061F   26162.78965816  .00000020  00000+0  90646-7 0  9999
2 43574  86.3968  59.0636 0002079  87.2544 272.8890 14.34217646412632
IRIDIUM 163             
1 43575U 18061G   26162.77062263  .00000174  00000+0  55102-4 0  9998
2 43575  86.3964  58.9871 0002288  83.4207 276.7250 14.34216508412600
IRIDIUM 156             
1 43576U 18061H   26162.74525911  .00000211  00000+0  68155-4 0  9994
2 43576  86.3963  59.0049 0002106  80.4334 279.7099 14.34216974412595
IRIDIUM 164             
1 43577U 18061J   26162.79600072  .00000066  00000+0  16371-4 0  9993
2 43577  86.3967  59.0240 0002099  88.8690 271.2746 14.34217619412640
IRIDIUM 159             
1 43578U 18061K   26162.76428792  .00000122  00000+0  36512-4 0  9990
2 43578  86.3964  58.9743 0002312  84.3853 275.7606 14.34217315412607
IRIDIUM 180             
1 43922U 19002A   26162.90332041  .00000005  00000+0 -51567-5 0  9995
2 43922  86.3968 355.8070 0002138  89.0411 271.1030 14.34217688388239
IRIDIUM 176             
1 43923U 19002B   26162.92546069  .00000661  00000+0  10088-3 0  9993
2 43923  86.6092 355.7421 0002240  91.7779 268.3695 14.72260033398477
IRIDIUM 168             
1 43924U 19002C   26162.96674729  .00000041  00000+0  77385-5 0  9990
2 43924  86.3974 355.8576 0002169  88.8221 271.3224 14.34217780388228
IRIDIUM 173             
1 43925U 19002D   26162.95406168  .00000007  00000+0 -44247-5 0  9994
2 43925  86.3965 355.7518 0002123  86.5831 273.5608 14.34217084388201
IRIDIUM 169             
1 43926U 19002E   26162.68778062  .00000123  00000+0  33591-4 0  9997
2 43926  86.4230  27.4928 0002043  70.8766 289.2653 14.38606189389432
IRIDIUM 172             
1 43927U 19002F   26162.94771797  .00000171  00000+0  53969-4 0  9999
2 43927  86.3970 355.7627 0002258  89.3187 270.8268 14.34217089388212
IRIDIUM 175             
1 43928U 19002G   26162.86927731  .00000264  00000+0  71985-4 0  9993
2 43928  86.4509 292.7442 0001799 198.9999 161.1136 14.43609823398212
IRIDIUM 171             
1 43929U 19002H   26162.92868996 -.00000245  00000+0 -94523-4 0  9992
2 43929  86.3974 356.0760 0001925  86.5377 273.6039 14.34217060388205
IRIDIUM 170             
1 43930U 19002J   26162.93164311  .00000655  00000+0  10002-3 0  9997
2 43930  86.6091 355.7418 0002359  88.2001 271.9486 14.72260437398487
IRIDIUM 167             
1 43931U 19002K   26162.92234799  .00000055  00000+0  12554-4 0  9994
2 43931  86.3970 355.7954 0001849  87.7960 272.3447 14.34217908388201
IRIDIUM 181             
1 56726U 23068S   26162.76809494  .00000268  00000+0  73542-4 0  9999
2 56726  86.4503  59.0559 0002335  89.7407 270.4061 14.43311779161654
IRIDIUM 177             
1 56727U 23068T   26162.91443824  .00000904  00000+0  11554-3 0  9999
2 56727  86.1959 331.2963 0002408  87.4422 272.7075 14.80220221165582
IRIDIUM 174             
1 56728U 23068U   26162.91929325  .00000677  00000+0  10338-3 0  9991
2 56728  86.6098 355.8939 0002537  84.7814 275.3692 14.72256568165246
IRIDIUM 178             
1 56729U 23068V   26162.63316136  .00000864  00000+0  11028-3 0  9996
2 56729  86.6542  27.6815 0002679  87.4832 272.6696 14.80224307165547
IRIDIUM 179             
1 56730U 23068W   26162.69537507  .00000956  00000+0  12242-3 0  9992
2 56730  86.6781  36.6189 0002401  88.1339 272.0158 14.80236495165550
