OBJECT_NAME,OBJECT_ID,EPOCH,MEAN_MOTION,ECCENTRICITY,INCLINATION,RA_OF_ASC_NODE,ARG_OF_PERICENTER,MEAN_ANOMALY,EPHEMERIS_TYPE,CLASSIFICATION_TYPE,NORAD_CAT_ID,ELEMENT_SET_NO,REV_AT_EPOCH,BSTAR,MEAN_MOTION_DOT,MEAN_MOTION_DDOT
IRIDIUM 154,2018-061F,2026-06-11T18:57:06.465024,14.34217646,.00020798,86.3968,59.0636,87.2544,272.8890,0,U,43574,999,41263,.90646E-7,.2E-6,0
IRIDIUM 163,2018-061G,2026-06-11T18:29:41.795232,14.34216508,.00022887,86.3964,58.9871,83.4207,276.7250,0,U,43575,999,41260,.55101572E-4,.174E-5,0
IRIDIUM 156,2018-061H,2026-06-11T17:53:10.387104,14.34216974,.00021065,86.3963,59.0049,80.4334,279.7099,0,U,43576,999,41259,.68154977E-4,.211E-5,0
IRIDIUM 164,2018-061J,2026-06-11T19:06:14.462208,14.34217619,.00020999,86.3967,59.0240,88.8690,271.2746,0,U,43577,999,41264,.16371337E-4,.66E-6,0
IRIDIUM 159,2018-061K,2026-06-11T18:20:34.476288,14.34217315,.00023122,86.3964,58.9743,84.3853,275.7606,0,U,43578,999,41260,.36512407E-4,.122E-5,0
IRIDIUM 180,2019-002A,2026-06-11T21:40:46.883424,14.34217688,.00021382,86.3968,355.8070,89.0411,271.1030,0,U,43922,999,38823,-.5156717E-5,.5E-7,0
IRIDIUM 176,2019-002B,2026-06-11T22:12:39.803616,14.72260033,.00022404,86.6092,355.7421,91.7779,268.3695,0,U,43923,999,39847,.10088466E-3,.661E-5,0
IRIDIUM 168,2019-002C,2026-06-11T23:12:06.965856,14.34217780,.00021699,86.3974,355.8576,88.8221,271.3224,0,U,43924,999,38822,.773853E-5,.41E-6,0
IRIDIUM 173,2019-002D,2026-06-11T22:53:50.929152,14.34217084,.00021237,86.3965,355.7518,86.5831,273.5608,0,U,43925,999,38820,-.442465E-5,.7E-7,0
IRIDIUM 169,2019-002E,2026-06-11T16:30:24.245568,14.38606189,.00020438,86.4230,27.4928,70.8766,289.2653,0,U,43926,999,38943,.33590874E-4,.123E-5,0
IRIDIUM 172,2019-002F,2026-06-11T22:44:42.832608,14.34217089,.00022586,86.3970,355.7627,89.3187,270.8268,0,U,43927,999,38821,.53969109E-4,.171E-5,0
IRIDIUM 175,2019-002G,2026-06-11T20:51:45.559584,14.43609823,.00017998,86.4509,292.7442,198.9999,161.1136,0,U,43928,999,39821,.71985381E-4,.264E-5,0
IRIDIUM 171,2019-002H,2026-06-11T22:17:18.812544,14.34217060,.00019252,86.3974,356.0760,86.5377,273.6039,0,U,43929,999,38820,-.94523357E-4,-.245E-5,0
IRIDIUM 170,2019-002J,2026-06-11T22:21:33.964704,14.72260437,.00023594,86.6091,355.7418,88.2001,271.9486,0,U,43930,999,39848,.1000228E-3,.655E-5,0
IRIDIUM 167,2019-002K,2026-06-11T22:08:10.866336,14.34217908,.00018493,86.3970,355.7954,87.7960,272.3447,0,U,43931,999,38820,.12554129E-4,.55E-6,0
IRIDIUM 181,2023-068S,2026-06-11T18:26:03.402816,14.43311779,.00023353,86.4503,59.0559,89.7407,270.4061,0,U,56726,999,16165,.73542394E-4,.268E-5,0
IRIDIUM 177,2023-068T,2026-06-11T21:56:47.463936,14.80220221,.00024083,86.1959,331.2963,87.4422,272.7075,0,U,56727,999,16558,.11554161E-3,.904E-5,0
IRIDIUM 174,2023-068U,2026-06-11T22:03:46.936800,14.72256568,.00025372,86.6098,355.8939,84.7814,275.3692,0,U,56728,999,16524,.10337722E-3,.677E-5,0
IRIDIUM 178,2023-068V,2026-06-11T15:11:45.141504,14.80224307,.00026797,86.6542,27.6815,87.4832,272.6696,0,U,56729,999,16554,.11027688E-3,.864E-5,0
IRIDIUM 179,2023-068W,2026-06-11T16:41:20.406048,14.80236495,.00024017,86.6781,36.6189,88.1339,272.0158,0,U,56730,999,16555,.12241597E-3,.956E-5,0
